SPACEMOBILE-003         
1 61045U 24163A   26198.31644291  .00001179  00000+0  67586-4 0  9991
2 61045  52.9669 170.8888 0004556 200.3744 159.7069 15.20711173102351
SPACEMOBILE-005         
1 61046U 24163B   26198.23415168  .00002231  00000+0  11478-3 0  9990
2 61046  52.9761 171.2183 0008600 201.8566 158.2063 15.20722463102330
SPACEMOBILE-001         
1 61047U 24163C   26198.03530451  .00000145  00000+0  21220-4 0  9991
2 61047  52.9725 171.8417 0007093 199.2363 160.8365 15.20743460102308
SPACEMOBILE-002         
1 61048U 24163D   26198.21631314 -.00008289  00000+0 -35752-3 0  9995
2 61048  52.9783 171.0502 0005651 199.5140 160.5639 15.20736530102338
SPACEMOBILE-004         
1 61049U 24163E   26197.34451693  .00012194  00000+0  56003-3 0  9999
2 61049  52.9692 174.8353 0005984 230.9141 129.1322 15.20779499102200
SPACEMOBILE-006         
1 67232U 25309A   26197.39546060  .00000913  00000+0  58828-4 0  9994
2 67232  52.9935 197.8358 0009991 219.1469 140.8802 15.18656625 31031
SPACEMOBILE-008         
1 69589U 26139A   26198.20086555  .00000273  00000+0  32353-4 0  9996
2 69589  52.9950 126.3014 0005137  61.2203 298.9303 15.12803619  4527
SPACEMOBILE-009         
1 69590U 26139B   26198.20296954  .00000298  00000+0  33869-4 0  9994
2 69590  52.9941 126.3087 0005408  57.2840 302.8672 15.12696995  4523
SPACEMOBILE-010         
1 69591U 26139C   26198.20630281  .00000517  00000+0  46400-4 0  9999
2 69591  52.9948 126.3326 0005332  49.3144 310.8309 15.12530958  4535
